IRIDIUM 116             
1 43072U 17083C   24030.87600608  .00000426  00000+0  14495-3 0  9996
2 43072  86.4000 324.9115 0002240  87.5891 272.5562 14.34218908319717
IRIDIUM 130             
1 43073U 17083D   24030.91406415  .00000004  00000+0 -56517-5 0  9998
2 43073  86.4007 325.0865 0001844  86.1670 273.9736 14.34217550319662
IRIDIUM 151             
1 43074U 17083E   24030.88869349  .00000338  00000+0  11346-3 0  9992
2 43074  86.4002 324.9442 0002520  85.8735 274.2749 14.34219185319683
IRIDIUM 134             
1 43075U 17083F   24030.85697960  .00000111  00000+0  32478-4 0  9997
2 43075  86.4004 324.9539 0001923  87.2374 272.9042 14.34217677319645
IRIDIUM 137             
1 43076U 17083G   24030.86965774  .00000438  00000+0  14933-3 0  9997
2 43076  86.4002 325.0243 0002466  89.0113 271.1365 14.34216434319719
IRIDIUM 141             
1 43077U 17083H   24031.35170210  .00000123  00000+0  37023-4 0  9993
2 43077  86.4000 324.7022 0002124  81.8776 278.2661 14.34216649319787
IRIDIUM 153             
1 43078U 17083J   24031.23411281  .00000191  00000+0  61037-4 0  9994
2 43078  86.3970 293.2024 0002245  76.0147 284.1298 14.34218481320877
IRIDIUM 131             
1 43079U 17083K   24030.85063786  .00000070  00000+0  17816-4 0  9997
2 43079  86.4007 325.0397 0002145  85.5759 274.5682 14.34217505319649
